{
    "links": {
        "self": "http://www.neowsapp.com/rest/v1/neo/54097873?api_key=iIulBulltgU6a56xZRHN4H3l9WmuAYTsLGpBGhQ2"
    },
    "id": "54097873",
    "neo_reference_id": "54097873",
    "name": "(2020 XL)",
    "designation": "2020 XL",
    "nasa_jpl_url": "http://ssd.jpl.nasa.gov/sbdb.cgi?sstr=54097873",
    "absolute_magnitude_h": 23.765,
    "estimated_diameter": {
        "kilometers": {
            "estimated_diameter_min": 0.0469412853,
            "estimated_diameter_max": 0.1049639048
        },
        "meters": {
            "estimated_diameter_min": 46.9412852738,
            "estimated_diameter_max": 104.9639048235
        },
        "miles": {
            "estimated_diameter_min": 0.0291679534,
            "estimated_diameter_max": 0.0652215265
        },
        "feet": {
            "estimated_diameter_min": 154.0068463778,
            "estimated_diameter_max": 344.3697775012
        }
    },
    "is_potentially_hazardous_asteroid": false,
    "close_approach_data": [
        {
            "close_approach_date": "2020-07-13",
            "close_approach_date_full": "2020-Jul-13 02:22",
            "epoch_date_close_approach": 1594606920000,
            "relative_velocity": {
                "kilometers_per_second": "10.4853673392",
                "kilometers_per_hour": "37747.322421251",
                "miles_per_hour": "23454.7182011379"
            },
            "miss_distance": {
                "astronomical": "0.4535940335",
                "lunar": "176.4480790315",
                "kilometers": "67856701.256308645",
                "miles": "42164198.980783501"
            },
            "orbiting_body": "Earth"
        },
        {
            "close_approach_date": "2020-11-21",
            "close_approach_date_full": "2020-Nov-21 09:12",
            "epoch_date_close_approach": 1605949920000,
            "relative_velocity": {
                "kilometers_per_second": "15.0189776464",
                "kilometers_per_hour": "54068.3195269993",
                "miles_per_hour": "33595.9510972069"
            },
            "miss_distance": {
                "astronomical": "0.1295062326",
                "lunar": "50.3779244814",
                "kilometers": "19373856.548684562",
                "miles": "12038356.2333564756"
            },
            "orbiting_body": "Earth"
        }
    ],
    "orbital_data": {
        "orbit_id": "2",
        "orbit_determination_date": "2020-12-07 05:27:02",
        "first_observation_date": "2020-12-04",
        "last_observation_date": "2020-12-07",
        "data_arc_in_days": 3,
        "observations_used": 21,
        "orbit_uncertainty": "9",
        "minimum_orbit_intersection": ".128875",
        "jupiter_tisserand_invariant": "3.997",
        "epoch_osculation": "2459188.5",
        "eccentricity": ".4298898231124074",
        "semi_major_axis": "1.712681225305975",
        "inclination": "22.31893380423883",
        "ascending_node_longitude": "69.45089798415846",
        "orbital_period": "818.6782118054216",
        "perihelion_distance": ".9764169963112485",
        "perihelion_argument": "299.3119965957944",
        "aphelion_distance": "2.448945454300702",
        "perihelion_time": "2459131.706461281629",
        "mean_anomaly": "24.97400522425649",
        "mean_motion": ".4397332124011168",
        "equinox": "J2000",
        "orbit_class": {
            "orbit_class_type": "APO",
            "orbit_class_description": "Near-Earth asteroid orbits which cross the Earth’s orbit similar to that of 1862 Apollo",
            "orbit_class_range": "a (semi-major axis) > 1.0 AU; q (perihelion) < 1.017 AU"
        }
    },
    "is_sentry_object": false
}